[{"OBJECT_NAME":"COSMOS 2586 (RODNIK-S 20)","OBJECT_ID":"2025-054B","EPOCH":"2026-03-09T20:39:29.212992","MEAN_MOTION":12.42872795,"ECCENTRICITY":0.0020074,"INCLINATION":82.494,"RA_OF_ASC_NODE":140.3829,"ARG_OF_PERICENTER":236.6872,"MEAN_ANOMALY":123.2285,"EPHEMERIS_TYPE":0,"CLASSIFICATION_TYPE":"U","NORAD_CAT_ID":63289,"ELEMENT_SET_NO":999,"REV_AT_EPOCH":4451,"BSTAR":4.3545e-5,"MEAN_MOTION_DOT":1.6e-7,"MEAN_MOTION_DDOT":0},{"OBJECT_NAME":"DELTA 1 DEB","OBJECT_ID":"1973-086BJ","EPOCH":"2026-03-09T11:22:14.503872","MEAN_MOTION":12.4031998,"ECCENTRICITY":0.00545309,"INCLINATION":101.817,"RA_OF_ASC_NODE":25.5673,"ARG_OF_PERICENTER":351.5402,"MEAN_ANOMALY":136.2333,"EPHEMERIS_TYPE":0,"CLASSIFICATION_TYPE":"U","NORAD_CAT_ID":7066,"ELEMENT_SET_NO":999,"REV_AT_EPOCH":36213,"BSTAR":0.0027097917,"MEAN_MOTION_DOT":3.21e-6,"MEAN_MOTION_DDOT":0}]
